[{"OBJECT_NAME":"STARLINK-3639","OBJECT_ID":"2022-017X","EPOCH":"2026-03-09T22:12:30.855168","MEAN_MOTION":15.0884289,"ECCENTRICITY":0.00013497,"INCLINATION":53.219,"RA_OF_ASC_NODE":348.0566,"ARG_OF_PERICENTER":115.454,"MEAN_ANOMALY":244.6592,"EPHEMERIS_TYPE":0,"CLASSIFICATION_TYPE":"U","NORAD_CAT_ID":51789,"ELEMENT_SET_NO":999,"REV_AT_EPOCH":22231,"BSTAR":5.9659178e-5,"MEAN_MOTION_DOT":6.62e-6,"MEAN_MOTION_DDOT":0},{"OBJECT_NAME":"OBJECT F","OBJECT_ID":"2025-292F","EPOCH":"2026-03-09T22:41:00.950496","MEAN_MOTION":15.06065121,"ECCENTRICITY":0.00151037,"INCLINATION":97.6416,"RA_OF_ASC_NODE":145.7425,"ARG_OF_PERICENTER":346.7214,"MEAN_ANOMALY":13.3613,"EPHEMERIS_TYPE":0,"CLASSIFICATION_TYPE":"U","NORAD_CAT_ID":66998,"ELEMENT_SET_NO":999,"REV_AT_EPOCH":1351,"BSTAR":0.00047210602,"MEAN_MOTION_DOT":6.85e-5,"MEAN_MOTION_DDOT":0}]
